start=new Date('2021-11-06T00:00:00.000Z').valueOf();
sats=[{"MEAN_MOTION_DDOT":"0.0000000000000","REF_FRAME":"TEME","EPHEMERIS_TYPE":"0","MEAN_MOTION_DOT":"0.00001421","ELEMENT_SET_NO":"999","TLE_LINE2":"2 47897  53.0533 185.8294 0001633  77.4717 282.6454 15.06402200 37347","OBJECT_TYPE":"PAYLOAD","ECCENTRICITY":"0.00016330","EPOCH":"2021-11-05T22:43:24.976704","PERIOD":"95.592","ARG_OF_PERICENTER":"77.4717","MEAN_MOTION":"15.06402200","RA_OF_ASC_NODE":"185.8294","NORAD_CAT_ID":"47897","REV_AT_EPOCH":"3734","INCLINATION":"53.0533","MEAN_ELEMENT_THEORY":"SGP4","DECAY_DATE":null,"TLE_LINE1":"1 47897U 21021AP  21309.94681686  .00001421  00000-0  11430-3 0  9994","APOAPSIS":"548.338","SEMIMAJOR_AXIS":"6925.342","GP_ID":"189046635","LAUNCH_DATE":"2021-03-14","CENTER_NAME":"EARTH","OBJECT_NAME":"STARLINK-2357","SITE":"AFETR","COUNTRY_CODE":"US","TIME_SYSTEM":"UTC","OBJECT_ID":"2021-021AP","PERIAPSIS":"546.076","CLASSIFICATION_TYPE":"U","BSTAR":"0.00011430000000","FILE":"3204412","RCS_SIZE":"MEDIUM","MEAN_ANOMALY":"282.6454"},{"REF_FRAME":"TEME","MEAN_MOTION_DDOT":"0.0000000000000","EPHEMERIS_TYPE":"0","MEAN_MOTION_DOT":"0.00003854","ELEMENT_SET_NO":"999","OBJECT_TYPE":"PAYLOAD","TLE_LINE2":"2 47898  53.0551 185.8353 0001673  70.6777 289.4393 15.06426309 37285","ECCENTRICITY":"0.00016730","EPOCH":"2021-11-05T22:34:09.764256","PERIOD":"95.590","ARG_OF_PERICENTER":"70.6777","RA_OF_ASC_NODE":"185.8353","MEAN_MOTION":"15.06426309","NORAD_CAT_ID":"47898","REV_AT_EPOCH":"3728","INCLINATION":"53.0551","MEAN_ELEMENT_THEORY":"SGP4","DECAY_DATE":null,"TLE_LINE1":"1 47898U 21021AQ  21309.94039079  .00003854  00000-0  27731-3 0  9991","APOAPSIS":"548.292","SEMIMAJOR_AXIS":"6925.268","GP_ID":"189045906","LAUNCH_DATE":"2021-03-14","CENTER_NAME":"EARTH","OBJECT_NAME":"STARLINK-2358","SITE":"AFETR","COUNTRY_CODE":"US","TIME_SYSTEM":"UTC","OBJECT_ID":"2021-021AQ","PERIAPSIS":"545.974","CLASSIFICATION_TYPE":"U","BSTAR":"0.00027731000000","FILE":"3204412","RCS_SIZE":"LARGE","MEAN_ANOMALY":"289.4393"},{"LAUNCH_DATE":"2021-03-14","GP_ID":"189046148","OBJECT_NAME":"STARLINK-2359","CENTER_NAME":"EARTH","DECAY_DATE":null,"TLE_LINE1":"1 47899U 21021AR  21309.93764248  .00001389  00000-0  11213-3 0  9993","APOAPSIS":"548.309","SEMIMAJOR_AXIS":"6925.374","BSTAR":"0.00011213000000","CLASSIFICATION_TYPE":"U","RCS_SIZE":"LARGE","FILE":"3204412","MEAN_ANOMALY":"283.6379","COUNTRY_CODE":"US","SITE":"AFETR","PERIAPSIS":"546.170","OBJECT_ID":"2021-021AR","TIME_SYSTEM":"UTC","ECCENTRICITY":"0.00015440","EPOCH":"2021-11-05T22:30:12.310272","TLE_LINE2":"2 47899  53.0556 175.8445 0001544  76.4782 283.6379 15.06391561 37482","OBJECT_TYPE":"PAYLOAD","EPHEMERIS_TYPE":"0","MEAN_MOTION_DOT":"0.00001389","REF_FRAME":"TEME","MEAN_MOTION_DDOT":"0.0000000000000","ELEMENT_SET_NO":"999","REV_AT_EPOCH":"3748","NORAD_CAT_ID":"47899","INCLINATION":"53.0556","MEAN_ELEMENT_THEORY":"SGP4","MEAN_MOTION":"15.06391561","RA_OF_ASC_NODE":"175.8445","ARG_OF_PERICENTER":"76.4782","PERIOD":"95.593"},{"BSTAR":"0.00026099000000","CLASSIFICATION_TYPE":"U","FILE":"3204412","RCS_SIZE":"LARGE","MEAN_ANOMALY":"276.5629","SITE":"AFETR","COUNTRY_CODE":"US","PERIAPSIS":"546.203","OBJECT_ID":"2021-021AS","TIME_SYSTEM":"UTC","LAUNCH_DATE":"2021-03-14","GP_ID":"189046908","OBJECT_NAME":"STARLINK-2360","CENTER_NAME":"EARTH","DECAY_DATE":null,"TLE_LINE1":"1 47900U 21021AS  21309.82887903  .00003609  00000-0  26099-3 0  9993","APOAPSIS":"548.149","SEMIMAJOR_AXIS":"6925.311","REV_AT_EPOCH":"3732","NORAD_CAT_ID":"47900","INCLINATION":"53.0556","MEAN_ELEMENT_THEORY":"SGP4","MEAN_MOTION":"15.06412153","RA_OF_ASC_NODE":"186.3352","ARG_OF_PERICENTER":"83.5520","PERIOD":"95.591","ECCENTRICITY":"0.00014050","EPOCH":"2021-11-05T19:53:35.148192","TLE_LINE2":"2 47900  53.0556 186.3352 0001405  83.5520 276.5629 15.06412153 37327","OBJECT_TYPE":"PAYLOAD","MEAN_MOTION_DOT":"0.00003609","EPHEMERIS_TYPE":"0","REF_FRAME":"TEME","MEAN_MOTION_DDOT":"0.0000000000000","ELEMENT_SET_NO":"999"},{"SITE":"AFETR","COUNTRY_CODE":"US","TIME_SYSTEM":"UTC","OBJECT_ID":"2021-021AT","PERIAPSIS":"546.133","CLASSIFICATION_TYPE":"U","BSTAR":"0.00009903600000","MEAN_ANOMALY":"291.8565","RCS_SIZE":"LARGE","FILE":"3204412","DECAY_DATE":null,"SEMIMAJOR_AXIS":"6925.289","TLE_LINE1":"1 47901U 21021AT  21309.91825950  .00001195  00000-0  99036-4 0  9998","APOAPSIS":"548.176","GP_ID":"189047135","LAUNCH_DATE":"2021-03-14","CENTER_NAME":"EARTH","OBJECT_NAME":"STARLINK-2361","PERIOD":"95.591","ARG_OF_PERICENTER":"68.2581","MEAN_MOTION":"15.06419393","RA_OF_ASC_NODE":"175.9275","NORAD_CAT_ID":"47901","REV_AT_EPOCH":"3746","MEAN_ELEMENT_THEORY":"SGP4","INCLINATION":"53.0508","REF_FRAME":"TEME","MEAN_MOTION_DDOT":"0.0000000000000","MEAN_MOTION_DOT":"0.00001195","EPHEMERIS_TYPE":"0","ELEMENT_SET_NO":"999","TLE_LINE2":"2 47901  53.0508 175.9275 0001475  68.2581 291.8565 15.06419393 37464","OBJECT_TYPE":"PAYLOAD","EPOCH":"2021-11-05T22:02:17.620800","ECCENTRICITY":"0.00014750"},{"PERIAPSIS":"546.167","TIME_SYSTEM":"UTC","OBJECT_ID":"2021-021AU","SITE":"AFETR","COUNTRY_CODE":"US","FILE":"3204412","RCS_SIZE":"LARGE","MEAN_ANOMALY":"291.0738","BSTAR":"0.00004773800000","CLASSIFICATION_TYPE":"U","TLE_LINE1":"1 47902U 21021AU  21309.91000671  .00000430  00000-0  47738-4 0  9997","APOAPSIS":"548.288","SEMIMAJOR_AXIS":"6925.362","DECAY_DATE":null,"OBJECT_NAME":"STARLINK-2362","CENTER_NAME":"EARTH","LAUNCH_DATE":"2021-03-14","GP_ID":"189045407","RA_OF_ASC_NODE":"195.9561","MEAN_MOTION":"15.06395456","ARG_OF_PERICENTER":"69.0415","PERIOD":"95.592","INCLINATION":"53.0532","MEAN_ELEMENT_THEORY":"SGP4","REV_AT_EPOCH":"3729","NORAD_CAT_ID":"47902","ELEMENT_SET_NO":"999","MEAN_MOTION_DOT":"0.00000430","EPHEMERIS_TYPE":"0","MEAN_MOTION_DDOT":"0.0000000000000","REF_FRAME":"TEME","ECCENTRICITY":"0.00015310","EPOCH":"2021-11-05T21:50:24.579744","OBJECT_TYPE":"PAYLOAD","TLE_LINE2":"2 47902  53.0532 195.9561 0001531  69.0415 291.0738 15.06395456 37298"},{"SITE":"AFETR","COUNTRY_CODE":"US","OBJECT_ID":"2021-021AV","TIME_SYSTEM":"UTC","PERIAPSIS":"546.015","CLASSIFICATION_TYPE":"U","BSTAR":"0.00010894000000","MEAN_ANOMALY":"291.5392","FILE":"3204412","RCS_SIZE":"LARGE","DECAY_DATE":null,"SEMIMAJOR_AXIS":"6925.366","APOAPSIS":"548.447","TLE_LINE1":"1 47903U 21021AV  21309.93396845  .00001341  00000-0  10894-3 0  9995","GP_ID":"189045649","LAUNCH_DATE":"2021-03-14","CENTER_NAME":"EARTH","OBJECT_NAME":"STARLINK-2363","ARG_OF_PERICENTER":"68.5784","PERIOD":"95.593","MEAN_MOTION":"15.06394198","RA_OF_ASC_NODE":"175.8635","NORAD_CAT_ID":"47903","REV_AT_EPOCH":"3781","MEAN_ELEMENT_THEORY":"SGP4","INCLINATION":"53.0541","REF_FRAME":"TEME","MEAN_MOTION_DDOT":"0.0000000000000","EPHEMERIS_TYPE":"0","MEAN_MOTION_DOT":"0.00001341","ELEMENT_SET_NO":"999","OBJECT_TYPE":"PAYLOAD","TLE_LINE2":"2 47903  53.0541 175.8635 0001756  68.5784 291.5392 15.06394198 37811","EPOCH":"2021-11-05T22:24:54.874080","ECCENTRICITY":"0.00017560"},{"CLASSIFICATION_TYPE":"U","BSTAR":"0.00002033100000","FILE":"3204412","RCS_SIZE":"LARGE","MEAN_ANOMALY":"282.5526","SITE":"AFETR","COUNTRY_CODE":"US","OBJECT_ID":"2021-021AW","TIME_SYSTEM":"UTC","PERIAPSIS":"546.135","GP_ID":"189046409","LAUNCH_DATE":"2021-03-14","CENTER_NAME":"EARTH","OBJECT_NAME":"STARLINK-2364","DECAY_DATE":null,"TLE_LINE1":"1 47904U 21021AW  21309.93025248  .00000021  00000-0  20331-4 0  9994","APOAPSIS":"548.250","SEMIMAJOR_AXIS":"6925.327","NORAD_CAT_ID":"47904","REV_AT_EPOCH":"3745","INCLINATION":"53.0554","MEAN_ELEMENT_THEORY":"SGP4","ARG_OF_PERICENTER":"77.5634","PERIOD":"95.592","RA_OF_ASC_NODE":"175.8674","MEAN_MOTION":"15.06406984","OBJECT_TYPE":"PAYLOAD","TLE_LINE2":"2 47904  53.0554 175.8674 0001527  77.5634 282.5526 15.06406984 37455","ECCENTRICITY":"0.00015270","EPOCH":"2021-11-05T22:19:33.814272","MEAN_MOTION_DDOT":"0.0000000000000","REF_FRAME":"TEME","MEAN_MOTION_DOT":"0.00000021","EPHEMERIS_TYPE":"0","ELEMENT_SET_NO":"999"},{"DECAY_DATE":null,"TLE_LINE1":"1 47905U 21021AX  21309.92659196  .00000368  00000-0  43631-4 0  9991","APOAPSIS":"548.365","SEMIMAJOR_AXIS":"6925.369","LAUNCH_DATE":"2021-03-14","GP_ID":"189046636","OBJECT_NAME":"STARLINK-2365","CENTER_NAME":"EARTH","SITE":"AFETR","COUNTRY_CODE":"US","PERIAPSIS":"546.103","OBJECT_ID":"2021-021AX","TIME_SYSTEM":"UTC","BSTAR":"0.00004363100000","CLASSIFICATION_TYPE":"U","FILE":"3204412","RCS_SIZE":"LARGE","MEAN_ANOMALY":"281.5022","EPHEMERIS_TYPE":"0","MEAN_MOTION_DOT":"0.00000368","MEAN_MOTION_DDOT":"0.0000000000000","REF_FRAME":"TEME","ELEMENT_SET_NO":"999","ECCENTRICITY":"0.00016330","EPOCH":"2021-11-05T22:14:17.545344","TLE_LINE2":"2 47905  53.0562 175.8903 0001633  78.6150 281.5022 15.06393318 37583","OBJECT_TYPE":"PAYLOAD","RA_OF_ASC_NODE":"175.8903","MEAN_MOTION":"15.06393318","PERIOD":"95.593","ARG_OF_PERICENTER":"78.6150","REV_AT_EPOCH":"3758","NORAD_CAT_ID":"47905","INCLINATION":"53.0562","MEAN_ELEMENT_THEORY":"SGP4"},{"SEMIMAJOR_AXIS":"6732.644","TLE_LINE1":"1 47906U 21021AY  21309.90020048  .00028634  00000-0  22240-3 0  9996","APOAPSIS":"360.481","DECAY_DATE":null,"CENTER_NAME":"EARTH","OBJECT_NAME":"STARLINK-2366","GP_ID":"189045907","LAUNCH_DATE":"2021-03-14","OBJECT_ID":"2021-021AY","TIME_SYSTEM":"UTC","PERIAPSIS":"348.538","SITE":"AFETR","COUNTRY_CODE":"US","MEAN_ANOMALY":"71.4078","FILE":"3204412","RCS_SIZE":"LARGE","CLASSIFICATION_TYPE":"U","BSTAR":"0.00022240000000","ELEMENT_SET_NO":"999","MEAN_MOTION_DDOT":"0.0000000000000","REF_FRAME":"TEME","MEAN_MOTION_DOT":"0.00028634","EPHEMERIS_TYPE":"0","TLE_LINE2":"2 47906  53.0502 129.0040 0008870 288.5976  71.4078 15.71535653 38231","OBJECT_TYPE":"PAYLOAD","EPOCH":"2021-11-05T21:36:17.321472","ECCENTRICITY":"0.00088700","PERIOD":"91.630","ARG_OF_PERICENTER":"288.5976","RA_OF_ASC_NODE":"129.0040","MEAN_MOTION":"15.71535653","MEAN_ELEMENT_THEORY":"SGP4","INCLINATION":"53.0502","NORAD_CAT_ID":"47906","REV_AT_EPOCH":"3823"}];
